{"type": "FeatureCollection", "features": [ {"type": "Feature", "properties": {"norad_id": 66495, "name": "STARLINK-35832", "group": "last-30-days", "lat": -7.548217701503428, "lon": -42.0638586482675, "alt_km": 415.85283257891297, "timestamp": "2025-12-11T22:43:46.023004+00:00", "meta": {"OBJECT_NAME": "STARLINK-35832", "OBJECT_ID": "2025-263L", "EPOCH": "2025-12-11T14:00:01.999872", "MEAN_MOTION": 15.50624423, "ECCENTRICITY": 0.00013238, "INCLINATION": 43.0003, "RA_OF_ASC_NODE": 131.8889, "ARG_OF_PERICENTER": 272.0333, "MEAN_ANOMALY": 46.3645, "EPHEMERIS_TYPE": 0, "CLASSIFICATION_TYPE": "U", "NORAD_CAT_ID": 66495, "ELEMENT_SET_NO": 999, "REV_AT_EPOCH": 545, "BSTAR": -0.0027873048, "MEAN_MOTION_DOT": -0.00160805, "MEAN_MOTION_DDOT": 0}, "tle": {"line1": "1 66495U 25263L   25345.58335648 -.00160805  00000+0 -27873-2 0  9999", "line2": "2 66495  43.0003 131.8889 0001323 272.0333  46.3645 15.50624423  5453"}}, "geometry": {"type": "Point", "coordinates": [-42.0638586482675, -7.548217701503428]}}, {"type": "Feature", "properties": {"norad_id": 66496, "name": "STARLINK-35909", "group": "last-30-days", "lat": -8.841185287142238, "lon": -40.63513975740236, "alt_km": 415.91598291485116, "timestamp": "2025-12-11T22:43:46.023014+00:00", "meta": {"OBJECT_NAME": "STARLINK-35909", "OBJECT_ID": "2025-263M", "EPOCH": "2025-12-11T14:00:01.999872", "MEAN_MOTION": 15.50624844, "ECCENTRICITY": 0.00012825, "INCLINATION": 43.0003, "RA_OF_ASC_NODE": 131.884, "ARG_OF_PERICENTER": 268.4861, "MEAN_ANOMALY": 51.8302, "EPHEMERIS_TYPE": 0, "CLASSIFICATION_TYPE": "U", "NORAD_CAT_ID": 66496, "ELEMENT_SET_NO": 999, "REV_AT_EPOCH": 545, "BSTAR": -0.0027752156, "MEAN_MOTION_DOT": -0.00160124, "MEAN_MOTION_DDOT": 0}, "tle": {"line1": "1 66496U 25263M   25345.58335648 -.00160124  00000+0 -27752-2 0  9990", "line2": "2 66496  43.0003 131.8840 0001282 268.4861  51.8302 15.50624844  5458"}}, "geometry": {"type": "Point", "coordinates": [-40.63513975740236, -8.841185287142238]}}, {"type": "Feature", "properties": {"norad_id": 66497, "name": "STARLINK-35899", "group": "last-30-days", "lat": -10.126106398212526, "lon": -39.19942948594647, "alt_km": 416.0551236469528, "timestamp": "2025-12-11T22:43:46.023024+00:00", "meta": {"OBJECT_NAME": "STARLINK-35899", "OBJECT_ID": "2025-263N", "EPOCH": "2025-12-11T14:00:01.999872", "MEAN_MOTION": 15.50621813, "ECCENTRICITY": 0.00013166, "INCLINATION": 43.0003, "RA_OF_ASC_NODE": 131.8789, "ARG_OF_PERICENTER": 271.1571, "MEAN_ANOMALY": 51.0758, "EPHEMERIS_TYPE": 0, "CLASSIFICATION_TYPE": "U", "NORAD_CAT_ID": 66497, "ELEMENT_SET_NO": 999, "REV_AT_EPOCH": 545, "BSTAR": -0.0026265341, "MEAN_MOTION_DOT": -0.00151709, "MEAN_MOTION_DDOT": 0}, "tle": {"line1": "1 66497U 25263N   25345.58335648 -.00151709  00000+0 -26265-2 0  9998", "line2": "2 66497  43.0003 131.8789 0001316 271.1571  51.0758 15.50621813  5458"}}, "geometry": {"type": "Point", "coordinates": [-39.19942948594647, -10.126106398212526]}}, {"type": "Feature", "properties": {"norad_id": 66498, "name": "STARLINK-35907", "group": "last-30-days", "lat": 26.477472067957876, "lon": -82.42500550241336, "alt_km": 440.36455450887297, "timestamp": "2025-12-11T22:43:46.023035+00:00", "meta": {"OBJECT_NAME": "STARLINK-35907", "OBJECT_ID": "2025-263P", "EPOCH": "2025-12-11T14:00:01.999872", "MEAN_MOTION": 15.40631882, "ECCENTRICITY": 0.00013818, "INCLINATION": 43.0003, "RA_OF_ASC_NODE": 131.9819, "ARG_OF_PERICENTER": 251.7529, "MEAN_ANOMALY": 27.7416, "EPHEMERIS_TYPE": 0, "CLASSIFICATION_TYPE": "U", "NORAD_CAT_ID": 66498, "ELEMENT_SET_NO": 999, "REV_AT_EPOCH": 545, "BSTAR": 0.00084381086, "MEAN_MOTION_DOT": 0.00035027, "MEAN_MOTION_DDOT": 0}, "tle": {"line1": "1 66498U 25263P   25345.58335648  .00035027  00000+0  84381-3 0  9995", "line2": "2 66498  43.0003 131.9819 0001381 251.7529  27.7416 15.40631882  5450"}}, "geometry": {"type": "Point", "coordinates": [-82.42500550241336, 26.477472067957876]}}, {"type": "Feature", "properties": {"norad_id": 66499, "name": "STARLINK-35816", "group": "last-30-days", "lat": 3.2959447280084677, "lon": -53.743497775853534, "alt_km": 437.8970828206411, "timestamp": "2025-12-11T22:43:46.023047+00:00", "meta": {"OBJECT_NAME": "STARLINK-35816", "OBJECT_ID": "2025-263Q", "EPOCH": "2025-12-11T14:00:01.999872", "MEAN_MOTION": 15.44231122, "ECCENTRICITY": 0.00011726, "INCLINATION": 43.0005, "RA_OF_ASC_NODE": 131.9045, "ARG_OF_PERICENTER": 264.3505, "MEAN_ANOMALY": 47.4986, "EPHEMERIS_TYPE": 0, "CLASSIFICATION_TYPE": "U", "NORAD_CAT_ID": 66499, "ELEMENT_SET_NO": 999, "REV_AT_EPOCH": 545, "BSTAR": -0.049188631, "MEAN_MOTION_DOT": -0.02055545, "MEAN_MOTION_DDOT": 0}, "tle": {"line1": "1 66499U 25263Q   25345.58335648 -.02055545  00000+0 -49189-1 0  9992", "line2": "2 66499  43.0005 131.9045 0001172 264.3505  47.4986 15.44231122  5454"}}, "geometry": {"type": "Point", "coordinates": [-53.743497775853534, 3.2959447280084677]}}, {"type": "Feature", "properties": {"norad_id": 66500, "name": "STARLINK-35894", "group": "last-30-days", "lat": 38.42793938196492, "lon": -108.41389288449375, "alt_km": 437.6025608209393, "timestamp": "2025-12-11T22:43:46.023059+00:00", "meta": {"OBJECT_NAME": "STARLINK-35894", "OBJECT_ID": "2025-263R", "EPOCH": "2025-12-11T14:00:01.999872", "MEAN_MOTION": 15.42830273, "ECCENTRICITY": 0.00015135, "INCLINATION": 43.0006, "RA_OF_ASC_NODE": 132.0494, "ARG_OF_PERICENTER": 262.4454, "MEAN_ANOMALY": 350.3836, "EPHEMERIS_TYPE": 0, "CLASSIFICATION_TYPE": "U", "NORAD_CAT_ID": 66500, "ELEMENT_SET_NO": 999, "REV_AT_EPOCH": 545, "BSTAR": -0.051316155, "MEAN_MOTION_DOT": -0.02045653, "MEAN_MOTION_DDOT": 0}, "tle": {"line1": "1 66500U 25263R   25345.58335648 -.02045653  00000+0 -51316-1 0  9999", "line2": "2 66500  43.0006 132.0494 0001513 262.4454 350.3836 15.42830273  5459"}}, "geometry": {"type": "Point", "coordinates": [-108.41389288449375, 38.42793938196492]}}, {"type": "Feature", "properties": {"norad_id": 66501, "name": "STARLINK-35897", "group": "last-30-days", "lat": -8.331675709515018, "lon": -41.20013390030333, "alt_km": 430.49915416403746, "timestamp": "2025-12-11T22:43:46.023072+00:00", "meta": {"OBJECT_NAME": "STARLINK-35897", "OBJECT_ID": "2025-263S", "EPOCH": "2025-12-11T14:00:01.999872", "MEAN_MOTION": 15.47145962, "ECCENTRICITY": 0.00014041, "INCLINATION": 43.0006, "RA_OF_ASC_NODE": 131.8722, "ARG_OF_PERICENTER": 264.5642, "MEAN_ANOMALY": 60.5765, "EPHEMERIS_TYPE": 0, "CLASSIFICATION_TYPE": "U", "NORAD_CAT_ID": 66501, "ELEMENT_SET_NO": 999, "REV_AT_EPOCH": 545, "BSTAR": -0.044830364, "MEAN_MOTION_DOT": -0.02071035, "MEAN_MOTION_DDOT": 0}, "tle": {"line1": "1 66501U 25263S   25345.58335648 -.02071035  00000+0 -44830-1 0  9996", "line2": "2 66501  43.0006 131.8722 0001404 264.5642  60.5765 15.47145962  5452"}}, "geometry": {"type": "Point", "coordinates": [-41.20013390030333, -8.331675709515018]}}, {"type": "Feature", "properties": {"norad_id": 66502, "name": "STARLINK-35922", "group": "last-30-days", "lat": -18.89418686519525, "lon": -28.7347169055545, "alt_km": 416.55007387857313, "timestamp": "2025-12-11T22:43:46.023084+00:00", "meta": {"OBJECT_NAME": "STARLINK-35922", "OBJECT_ID": "2025-263T", "EPOCH": "2025-12-11T14:00:01.999872", "MEAN_MOTION": 15.50619921, "ECCENTRICITY": 0.00014303, "INCLINATION": 43.0002, "RA_OF_ASC_NODE": 131.8444, "ARG_OF_PERICENTER": 262.8231, "MEAN_ANOMALY": 72.8273, "EPHEMERIS_TYPE": 0, "CLASSIFICATION_TYPE": "U", "NORAD_CAT_ID": 66502, "ELEMENT_SET_NO": 999, "REV_AT_EPOCH": 545, "BSTAR": -0.0024804207, "MEAN_MOTION_DOT": -0.00143431, "MEAN_MOTION_DDOT": 0}, "tle": {"line1": "1 66502U 25263T   25345.58335648 -.00143431  00000+0 -24804-2 0  9995", "line2": "2 66502  43.0002 131.8444 0001430 262.8231  72.8273 15.50619921  5459"}}, "geometry": {"type": "Point", "coordinates": [-28.7347169055545, -18.89418686519525]}}, {"type": "Feature", "properties": {"norad_id": 66503, "name": "STARLINK-35917", "group": "last-30-days", "lat": -20.681889925132086, "lon": -26.39248909767121, "alt_km": 421.10857583925736, "timestamp": "2025-12-11T22:43:46.023095+00:00", "meta": {"OBJECT_NAME": "STARLINK-35917", "OBJECT_ID": "2025-263U", "EPOCH": "2025-12-11T14:00:01.999872", "MEAN_MOTION": 15.50672223, "ECCENTRICITY": 0.00012811, "INCLINATION": 43.0001, "RA_OF_ASC_NODE": 131.8346, "ARG_OF_PERICENTER": 259.9894, "MEAN_ANOMALY": 79.4751, "EPHEMERIS_TYPE": 0, "CLASSIFICATION_TYPE": "U", "NORAD_CAT_ID": 66503, "ELEMENT_SET_NO": 999, "REV_AT_EPOCH": 545, "BSTAR": -0.040330396, "MEAN_MOTION_DOT": -0.02107087, "MEAN_MOTION_DDOT": 0}, "tle": {"line1": "1 66503U 25263U   25345.58335648 -.02107087  00000+0 -40330-1 0  9996", "line2": "2 66503  43.0001 131.8346 0001281 259.9894  79.4751 15.50672223  5454"}}, "geometry": {"type": "Point", "coordinates": [-26.39248909767121, -20.681889925132086]}}, {"type": "Feature", "properties": {"norad_id": 66504, "name": "STARLINK-35916", "group": "last-30-days", "lat": -24.539391071249916, "lon": 101.86246615860453, "alt_km": 445.08818462571435, "timestamp": "2025-12-11T22:43:46.023105+00:00", "meta": {"OBJECT_NAME": "STARLINK-35916", "OBJECT_ID": "2025-263V", "EPOCH": "2025-12-11T02:39:58.353120", "MEAN_MOTION": 15.40717379, "ECCENTRICITY": 0.00015168, "INCLINATION": 42.9999, "RA_OF_ASC_NODE": 136.0186, "ARG_OF_PERICENTER": 285.0146, "MEAN_ANOMALY": 75.0543, "EPHEMERIS_TYPE": 0, "CLASSIFICATION_TYPE": "U", "NORAD_CAT_ID": 66504, "ELEMENT_SET_NO": 999, "REV_AT_EPOCH": 529, "BSTAR": 0.0017331304, "MEAN_MOTION_DOT": 0.0007283, "MEAN_MOTION_DDOT": 0}, "tle": {"line1": "1 66504U 25263V   25345.11109205  .00072830  00000+0  17331-2 0  9993", "line2": "2 66504  42.9999 136.0186 0001516 285.0146  75.0543 15.40717379  5293"}}, "geometry": {"type": "Point", "coordinates": [101.86246615860453, -24.539391071249916]}}]}